NORAD_CAT_ID,OBJECT_NAME,OBJECT_TYPE,EPOCH,MEAN_MOTION,ECCENTRICITY,INCLINATION,RA_OF_ASC_NODE,ARG_OF_PERICENTER,MEAN_ANOMALY,BSTAR,MEAN_MOTION_DOT,MEAN_MOTION_DDOT,TLE_LINE0,TLE_LINE1,TLE_LINE2,SEMIMAJOR_AXIS,PERIOD,APOGEE,PERIGEE,DECAYED
54073.0,STARLINK-5146,PAYLOAD,2024-01-14 20:11:50,15.08842544,0.0001494,53.2157,262.0992,111.064,249.0512,0.00011848,1.598e-05,0.0,0 STARLINK-5146,1 54073U 22136Y   24014.84155771  .00001598  00000-0  11848-3 0  9990,2 54073  53.2157 262.0992 0001494 111.0640 249.0512 15.08842544 68913,6917.873,95.437,540.771,538.704,0.0
54073.0,STARLINK-5146,PAYLOAD,2024-01-14 21:47:13,15.08845917,0.0001543,53.2158,261.8024,111.3333,248.7823,0.00019998,2.897e-05,0.0,0 STARLINK-5146,1 54073U 22136Y   24014.90779610  .00002897  00000-0  19998-3 0  9998,2 54073  53.2158 261.8024 0001543 111.3333 248.7823 15.08845917 68440,6917.862,95.437,540.795,538.66,0.0
54073.0,STARLINK-5146,PAYLOAD,2024-01-15 20:02:36,15.08853567,0.0001508,53.2152,257.6381,116.2233,243.8915,-0.00055594,-9.128e-05,0.0,0 STARLINK-5146,1 54073U 22136Y   24015.83514864 -.00009128  00000-0 -55594-3 0  9997,2 54073  53.2152 257.6381 0001508 116.2233 243.8915 15.08853567 68580,6917.839,95.437,540.747,538.661,0.0
54073.0,STARLINK-5146,PAYLOAD,2024-01-16 02:24:10,15.08840626,0.0001422,53.2156,256.4507,104.0122,256.1028,-7.7489e-05,-1.521e-05,0.0,0 STARLINK-5146,1 54073U 22136Y   24016.10011727 -.00001521  00000-0 -77489-4 0  9995,2 54073  53.2156 256.4507 0001422 104.0122 256.1028 15.08840626 69101,6917.878,95.438,540.727,538.76,0.0
54073.0,STARLINK-5146,PAYLOAD,2024-01-16 15:07:15,15.08836468,0.0001702,53.2156,254.0717,106.9797,253.1382,-7.6012e-05,-1.497e-05,0.0,0 STARLINK-5146,1 54073U 22136Y   24016.63004017 -.00001497  00000-0 -76012-4 0  9990,2 54073  53.2156 254.0717 0001702 106.9797 253.1382 15.08836468 68702,6917.891,95.438,540.934,538.579,0.0
54073.0,STARLINK-5146,PAYLOAD,2024-01-16 21:28:48,15.08835221,0.0001794,53.2164,252.8843,123.7083,236.408,0.00010816,1.433e-05,0.0,0 STARLINK-5146,1 54073U 22136Y   24016.89500038  .00001433  00000-0  10816-3 0  9999,2 54073  53.2164 252.8843 0001794 123.7083 236.4080 15.08835221 68742,6917.895,95.438,541.001,538.519,0.0
54073.0,STARLINK-5146,PAYLOAD,2024-01-17 00:39:33,15.08844128,0.0001587,53.2165,252.2907,121.8482,238.2664,-2.709e-05,-7.19e-06,0.0,0 STARLINK-5146,1 54073U 22136Y   24017.02747393 -.00000719  00000-0 -27090-4 0  9993,2 54073  53.2165 252.2907 0001587 121.8482 238.2664 15.08844128 68766,6917.868,95.437,540.831,538.635,0.0
54073.0,STARLINK-5146,PAYLOAD,2024-01-17 19:44:12,15.0883557,0.0001754,53.2172,248.7224,124.4655,235.6503,-3.9814e-05,-9.22e-06,0.0,0 STARLINK-5146,1 54073U 22136Y   24017.82236363 -.00000922  00000-0 -39814-4 0  9994,2 54073  53.2172 248.7224 0001754 124.4655 235.6503 15.08835570 69364,6917.894,95.438,540.972,538.546,0.0
54073.0,STARLINK-5146,PAYLOAD,2024-01-17 21:19:35,15.08836355,0.0001831,53.2176,248.4235,117.8248,242.293,0.00010212,1.337e-05,0.0,0 STARLINK-5146,1 54073U 22136Y   24017.88860503  .00001337  00000-0  10212-3 0  9998,2 54073  53.2176 248.4235 0001831 117.8248 242.2930 15.08836355 68894,6917.892,95.438,541.023,538.49,0.0
54073.0,STARLINK-5146,PAYLOAD,2024-01-18 14:48:50,15.08839368,0.0001564,53.2167,245.1547,77.8473,282.2694,0.00013136,1.803e-05,0.0,0 STARLINK-5146,1 54073U 22136Y   24018.61724681  .00001803  00000-0  13136-3 0  9992,2 54073  53.2167 245.1547 0001564  77.8473 282.2694 15.08839368 69004,6917.882,95.438,540.829,538.665,0.0
54073.0,STARLINK-5146,PAYLOAD,2024-01-18 21:10:22,15.0884296,0.0001476,53.2167,243.964,79.2773,280.8386,9.8587e-05,1.282e-05,0.0,0 STARLINK-5146,1 54073U 22136Y   24018.88220551  .00001282  00000-0  98587-4 0  9993,2 54073  53.2167 243.9640 0001476  79.2773 280.8386 15.08842960 69043,6917.871,95.437,540.757,538.715,0.0
54073.0,STARLINK-5146,PAYLOAD,2024-01-19 14:39:36,15.08846472,0.0001533,53.2164,240.6927,78.9452,281.1713,0.0001521,2.134e-05,0.0,0 STARLINK-5146,1 54073U 22136Y   24019.61084156  .00002134  00000-0  15210-3 0  9992,2 54073  53.2164 240.6927 0001533  78.9452 281.1713 15.08846472 69158,6917.861,95.437,540.786,538.665,0.0
54073.0,STARLINK-5146,PAYLOAD,2024-01-19 21:01:09,15.08849391,0.0001402,53.2149,239.5022,84.3759,275.7393,0.00021388,3.118e-05,0.0,0 STARLINK-5146,1 54073U 22136Y   24019.87580062  .00003118  00000-0  21388-3 0  9993,2 54073  53.2149 239.5022 0001402  84.3759 275.7393 15.08849391 69190,6917.852,95.437,540.687,538.747,0.0
54073.0,STARLINK-5146,PAYLOAD,2024-01-20 14:30:24,15.08840167,0.0001437,53.2149,236.2304,89.9357,270.18,4.4471e-05,4.2e-06,0.0,0 STARLINK-5146,1 54073U 22136Y   24020.60444561  .00000420  00000-0  44471-4 0  9991,2 54073  53.2149 236.2304 0001437  89.9357 270.1800 15.08840167 69307,6917.88,95.438,540.739,538.751,0.0
54073.0,STARLINK-5146,PAYLOAD,2024-01-20 19:16:33,15.08838135,0.0001315,53.2147,235.3377,98.3975,261.7166,9.1592e-06,-1.42e-06,0.0,0 STARLINK-5146,1 54073U 22136Y   24020.80316627 -.00000142  00000-0  91592-5 0  9993,2 54073  53.2147 235.3377 0001315  98.3975 261.7166 15.08838135 69819,6917.886,95.438,540.661,538.841,0.0
54073.0,STARLINK-5146,PAYLOAD,2024-01-20 20:51:56,15.08837923,0.0001253,53.2149,235.0405,96.0733,264.0402,9.9691e-06,-1.29e-06,0.0,0 STARLINK-5146,1 54073U 22136Y   24020.86940638 -.00000129  00000-0  99691-5 0  9997,2 54073  53.2149 235.0405 0001253  96.0733 264.0402 15.08837923 69349,6917.887,95.438,540.619,538.885,0.0
54073.0,STARLINK-5146,PAYLOAD,2024-01-21 00:02:42,15.08837849,0.0001259,53.2148,234.4458,97.9893,262.1242,1.145e-05,-1.06e-06,0.0,0 STARLINK-5146,1 54073U 22136Y   24021.00188652 -.00000106  00000-0  11450-4 0  9995,2 54073  53.2148 234.4458 0001259  97.9893 262.1242 15.08837849 69362,6917.887,95.438,540.623,538.881,0.0
54073.0,STARLINK-5146,PAYLOAD,2024-01-21 19:07:22,15.0882651,0.0001299,53.216,230.8754,112.2684,247.8446,-0.00014252,-2.554e-05,0.0,0 STARLINK-5146,1 54073U 22136Y   24021.79678383 -.00002554  00000-0 -14252-3 0  9998,2 54073  53.2160 230.8754 0001299 112.2684 247.8446 15.08826510 69963,6917.922,95.438,540.685,538.888,0.0
54073.0,STARLINK-5146,PAYLOAD,2024-01-21 20:42:45,15.08823713,0.0001266,53.2162,230.5779,112.7033,247.4093,-0.0001724,-3.029e-05,0.0,0 STARLINK-5146,1 54073U 22136Y   24021.86302657 -.00003029  00000-0 -17240-3 0  9992,2 54073  53.2162 230.5779 0001266 112.7033 247.4093 15.08823713 69490,6917.93,95.439,540.671,538.919,0.0
54073.0,STARLINK-5146,PAYLOAD,2024-01-22 18:58:09,15.08828688,0.0001773,53.2165,226.4162,129.1478,230.9672,4.7117e-05,4.62e-06,0.0,0 STARLINK-5146,1 54073U 22136Y   24022.79038501  .00000462  00000-0  47117-4 0  9992,2 54073  53.2165 226.4162 0001773 129.1478 230.9672 15.08828688 70118,6917.915,95.438,541.007,538.553,0.0
54073.0,STARLINK-5146,PAYLOAD,2024-01-22 20:33:32,15.08832995,0.0001225,53.2156,226.1201,102.4843,257.6287,7.9446e-05,9.77e-06,0.0,0 STARLINK-5146,1 54073U 22136Y   24022.85662295  .00000977  00000-0  79446-4 0  9993,2 54073  53.2156 226.1201 0001225 102.4843 257.6287 15.08832995 69641,6917.902,95.438,540.614,538.919,0.0
54073.0,STARLINK-5146,PAYLOAD,2024-01-23 02:55:04,15.08839401,0.0001101,53.2151,224.9308,98.61,261.5016,0.00013959,1.934e-05,0.0,0 STARLINK-5146,1 54073U 22136Y   24023.12157753  .00001934  00000-0  13959-3 0  9992,2 54073  53.2151 224.9308 0001101  98.6100 261.5016 15.08839401 70167,6917.882,95.438,540.509,538.986,0.0
54073.0,STARLINK-5146,PAYLOAD,2024-01-23 04:30:27,15.08840353,0.0001134,53.2153,224.633,105.5693,254.5424,0.00014976,2.096e-05,0.0,0 STARLINK-5146,1 54073U 22136Y   24023.18781755  .00002096  00000-0  14976-3 0  9993,2 54073  53.2153 224.6330 0001134 105.5693 254.5424 15.08840353 69691,6917.879,95.438,540.529,538.96,0.0
54073.0,STARLINK-5146,PAYLOAD,2024-01-23 21:59:41,15.08842066,0.000107,53.2157,221.3619,100.8361,259.2751,0.00030245,4.529e-05,0.0,0 STARLINK-5146,1 54073U 22136Y   24023.91645604  .00004529  00000-0  30245-3 0  9996,2 54073  53.2157 221.3619 0001070 100.8361 259.2751 15.08842066 69809,6917.874,95.437,540.479,538.999,0.0
54073.0,STARLINK-5146,PAYLOAD,2024-01-24 04:21:14,15.08843721,0.0001102,53.2143,220.1718,109.6815,250.4296,0.00021676,3.164e-05,0.0,0 STARLINK-5146,1 54073U 22136Y   24024.18141901  .00003164  00000-0  21676-3 0  9999,2 54073  53.2143 220.1718 0001102 109.6815 250.4296 15.08843721 70323,6917.869,95.437,540.496,538.972,0.0
54073.0,STARLINK-5146,PAYLOAD,2024-01-24 13:53:33,15.08851307,0.0001068,53.2142,218.3882,97.2122,262.8991,0.00012228,1.659e-05,0.0,0 STARLINK-5146,1 54073U 22136Y   24024.57885432  .00001659  00000-0  12228-3 0  9996,2 54073  53.2142 218.3882 0001068  97.2122 262.8991 15.08851307 69907,6917.846,95.437,540.45,538.972,0.0
54073.0,STARLINK-5146,PAYLOAD,2024-01-24 20:15:05,15.08856123,0.0001047,53.214,217.1988,96.6956,263.4155,0.00018122,2.599e-05,0.0,0 STARLINK-5146,1 54073U 22136Y   24024.84381014  .00002599  00000-0  18122-3 0  9996,2 54073  53.2140 217.1988 0001047  96.6956 263.4155 15.08856123 70423,6917.831,95.437,540.42,538.972,0.0
54073.0,STARLINK-5146,PAYLOAD,2024-01-24 21:50:28,15.08856225,0.0001038,53.214,216.9015,96.096,264.015,0.00017076,2.432e-05,0.0,0 STARLINK-5146,1 54073U 22136Y   24024.91004919  .00002432  00000-0  17076-3 0  9993,2 54073  53.2140 216.9015 0001038  96.0960 264.0150 15.08856225 69951,6917.831,95.437,540.414,538.978,0.0
54073.0,STARLINK-5146,PAYLOAD,2024-01-24 23:25:51,15.08857052,0.0001032,53.214,216.6041,95.5946,264.5164,0.00018983,2.736e-05,0.0,0 STARLINK-5146,1 54073U 22136Y   24024.97628865  .00002736  00000-0  18983-3 0  9996,2 54073  53.2140 216.6041 0001032  95.5946 264.5164 15.08857052 69969,6917.828,95.436,540.407,538.979,0.0
54073.0,STARLINK-5146,PAYLOAD,2024-01-25 20:05:52,15.08849255,0.0001035,53.2147,212.7382,90.3386,269.7725,3.1309e-05,2.11e-06,0.0,0 STARLINK-5146,1 54073U 22136Y   24025.83740923  .00000211  00000-0  31309-4 0  9996,2 54073  53.2147 212.7382 0001035  90.3386 269.7725 15.08849255 70570,6917.852,95.437,540.433,539.001,0.0
